IRIDIUM 7               
1 24793U 97020B   25068.87305075  .00000812  00000+0  27414-3 0  9990
2 24793  86.3976 218.4763 0002342  92.3907 267.7557 14.35803633457649
IRIDIUM 5               
1 24795U 97020D   25068.76559951  .00009493  00000+0  80278-3 0  9995
2 24795  86.3905 129.5517 0113797 134.2794 226.7841 14.92940641470627
IRIDIUM 4               
1 24796U 97020E   25068.91904014  .00000799  00000+0  26462-3 0  9992
2 24796  86.3979 215.4009 0002167  96.5212 263.6232 14.36712459458210
IRIDIUM 914             
1 24836U 97030A   25068.92082180  .00000995  00000+0  30533-3 0  9992
2 24836  86.3937 224.2995 0002563 133.6286 226.5126 14.40705792592839
IRIDIUM 16              
1 24841U 97030F   25069.01032233  .00000876  00000+0  28024-3 0  9993
2 24841  86.3988 246.9258 0003735  60.3286 299.8284 14.38556477453006
IRIDIUM 911             
1 24842U 97030G   25068.92086625  .00001210  00000+0  32397-3 0  9998
2 24842  86.4414 245.8359 0016174  71.7964 288.4998 14.47424335460722
IRIDIUM 17              
1 24870U 97034B   25069.07542908  .00000744  00000+0  24143-3 0  9992
2 24870  86.3901 276.4538 0002189  43.5668 316.5702 14.37670325449343
